NORAD_CAT_ID,OBJECT_NAME,OBJECT_TYPE,EPOCH,MEAN_MOTION,ECCENTRICITY,INCLINATION,RA_OF_ASC_NODE,ARG_OF_PERICENTER,MEAN_ANOMALY,BSTAR,MEAN_MOTION_DOT,MEAN_MOTION_DDOT,TLE_LINE0,TLE_LINE1,TLE_LINE2,SEMIMAJOR_AXIS,PERIOD,APOGEE,PERIGEE,DECAYED
52657.0,STARLINK-4084,PAYLOAD,2022-08-12 14:00:01,15.08832592,0.0001549,53.2127,252.9684,54.4542,15.708,-0.0012502,-0.00020126,0.0,0 STARLINK-4084,1 52657U 22053B   22224.58334491 -.00020126  00000-0 -12502-2 0  9991,2 52657  53.2127 252.9684 0001549  54.4542  15.7080 15.08832592  1304,6917.903,95.438,540.84,538.696,0.0
52657.0,STARLINK-4084,PAYLOAD,2022-08-12 22:00:01,15.08774539,0.000147,53.2129,251.4701,65.6029,16.2105,0.0045303999999999,0.00072425,0.0,0 STARLINK-4084,1 52657U 22053B   22224.91668981  .00072425  00000-0  45304-2 0  9995,2 52657  53.2129 251.4701 0001470  65.6029  16.2105 15.08774539  1307,6918.08,95.442,540.962,538.929,0.0
52657.0,STARLINK-4084,PAYLOAD,2022-08-13 14:00:01,15.08830341,0.0001688,53.2125,248.4787,58.8576,46.0258,0.0012450999999999,0.00019578,0.0,0 STARLINK-4084,1 52657U 22053B   22225.58334491  .00019578  00000-0  12451-2 0  9992,2 52657  53.2125 248.4787 0001688  58.8576  46.0258 15.08830341  1309,6917.91,95.438,540.943,538.607,0.0
52657.0,STARLINK-4084,PAYLOAD,2022-08-13 22:00:00,15.08818365,0.0001541,53.2126,246.9805,67.6662,48.8175,0.0024944,0.0003961,0.0,0 STARLINK-4084,1 52657U 22053B   22225.91667824  .00039610  00000-0  24944-2 0  9997,2 52657  53.2126 246.9805 0001541  67.6662  48.8175 15.08818365  1306,6917.946999999999,95.439,540.878,538.745,0.0
52657.0,STARLINK-4084,PAYLOAD,2022-08-14 14:00:01,15.08842372,0.0001693,53.213,243.9889,60.2892,79.387,0.00072001,0.0001119,0.0,0 STARLINK-4084,1 52657U 22053B   22226.58334491  .00011190  00000-0  72001-3 0  9993,2 52657  53.2130 243.9889 0001693  60.2892  79.3870 15.08842372  1308,6917.873000000001,95.437,540.909,538.567,0.0
52657.0,STARLINK-4084,PAYLOAD,2022-08-14 22:00:00,15.08827698,0.0001573,53.2137,242.4907,68.8275,82.4593,0.0024656999999999,0.00039159,0.0,0 STARLINK-4084,1 52657U 22053B   22226.91667824  .00039159  00000-0  24657-2 0  9997,2 52657  53.2137 242.4907 0001573  68.8275  82.4593 15.08827698  1307,6917.918000000002,95.438,540.871,538.695,0.0
52657.0,STARLINK-4084,PAYLOAD,2022-08-15 14:00:01,15.08859632,0.0001710999999999,53.214,239.4992,61.8459,112.651,0.00046628,7.145e-05,0.0,0 STARLINK-4084,1 52657U 22053B   22227.58334491  .00007145  00000-0  46628-3 0  9995,2 52657  53.2140 239.4992 0001711  61.8459 112.6510 15.08859632  1300,6917.82,95.436,540.869,538.502,0.0
52657.0,STARLINK-4084,PAYLOAD,2022-08-15 20:00:01,15.08840813,0.0001602,53.2143,238.3755,68.2482,24.9628,0.0014448,0.00022781,0.0,0 STARLINK-4084,1 52657U 22053B   22227.83334491  .00022781  00000-0  14448-2 0  9990,2 52657  53.2143 238.3755 0001602  68.2482  24.9628 15.08840813 14876,6917.878000000002,95.438,540.851,538.635,0.0
52657.0,STARLINK-4084,PAYLOAD,2022-08-15 22:00:00,15.08836298,0.0001618,53.2141,238.001,69.3049,116.8095,0.0023772,0.00037744,0.0,0 STARLINK-4084,1 52657U 22053B   22227.91667824  .00037744  00000-0  23772-2 0  9993,2 52657  53.2141 238.0010 0001618  69.3049 116.8095 15.08836298  1308,6917.892,95.438,540.876,538.637,0.0
52657.0,STARLINK-4084,PAYLOAD,2022-08-16 12:00:00,15.08852731,0.0001664,53.2142,235.3842,58.8776,57.5626,-0.0021784,-0.00034802,0.0,0 STARLINK-4084,1 52657U 22053B   22228.50001157 -.00034802  00000-0 -21784-2 0  9995,2 52657  53.2142 235.3842 0001664  58.8776  57.5626 15.08852731 14971,6917.840999999999,95.437,540.8580000000002,538.555,0.0
52657.0,STARLINK-4084,PAYLOAD,2022-08-16 14:00:01,15.08864066,0.000162,53.2142,235.0096,59.3873,149.9509,-0.0048766,-0.0007712,0.0,0 STARLINK-4084,1 52657U 22053B   22228.58334491 -.00077120  00000-0 -48766-2 0  9992,2 52657  53.2142 235.0096 0001620  59.3873 149.9509 15.08864066  1308,6917.807,95.436,540.793,538.5509999999998,0.0
52657.0,STARLINK-4084,PAYLOAD,2022-08-16 22:00:00,15.08786572,0.0001458,53.2144,233.5115,64.9314,156.0047,0.0024212,0.00038399,0.0,0 STARLINK-4084,1 52657U 22053B   22228.91667824  .00038399  00000-0  24212-2 0  9991,2 52657  53.2144 233.5115 0001458  64.9314 156.0047 15.08786572  1307,6918.044,95.441,540.9169999999998,538.9,0.0
52657.0,STARLINK-4084,PAYLOAD,2022-08-17 12:00:00,15.08793275,0.000164,53.2146,230.8948,55.4953,95.6565,0.0021895,0.00034685,0.0,0 STARLINK-4084,1 52657U 22053B   22229.50001157  .00034685  00000-0  21895-2 0  9996,2 52657  53.2146 230.8948 0001640  55.4953  95.6565 15.08793275 15126,6918.023,95.441,541.023,538.754,0.0
52657.0,STARLINK-4084,PAYLOAD,2022-08-17 16:00:00,15.08827257,0.0001598,53.2147,230.1457,58.5198,278.4019,-0.0022974,-0.00036653,0.0,0 STARLINK-4084,1 52657U 22053B   22229.66667824 -.00036653  00000-0 -22974-2 0  9990,2 52657  53.2147 230.1457 0001598  58.5198 278.4019 15.08827257 15147,6917.919,95.438,540.89,538.679,0.0
52657.0,STARLINK-4084,PAYLOAD,2022-08-18 06:00:02,15.08853321,0.0001807,53.215,227.5276,61.4791,205.75,-0.00071229,-0.00011611,0.0,0 STARLINK-4084,1 52657U 22053B   22230.25002315 -.00011611  00000-0 -71229-3 0  9990,2 52657  53.2150 227.5276 0001807  61.4791 205.7500 15.08853321 15234,6917.84,95.437,540.955,538.455,0.0
52657.0,STARLINK-4084,PAYLOAD,2022-08-18 14:00:01,15.08868075,0.0001788,53.215,226.0311,59.4851,219.2824,-0.0013338,-0.00021469,0.0,0 STARLINK-4084,1 52657U 22053B   22230.58334491 -.00021469  00000-0 -13338-2 0  9997,2 52657  53.2150 226.0311 0001788  59.4851 219.2824 15.08868075  1304,6917.795,95.436,540.896,538.423,0.0
52657.0,STARLINK-4084,PAYLOAD,2022-08-18 22:00:00,15.08842098,0.0001717,53.2153,224.5329,67.0309,223.3614,0.0026931999999999,0.00042838,0.0,0 STARLINK-4084,1 52657U 22053B   22230.91667824  .00042838  00000-0  26932-2 0  9998,2 52657  53.2153 224.5329 0001717  67.0309 223.3614 15.08842098 15332,6917.874,95.437,540.927,538.5509999999998,0.0
52657.0,STARLINK-4084,PAYLOAD,2022-08-19 14:00:01,15.08858191,0.0001724,53.2152,221.5417,58.4823,255.1446,-0.0017589,-0.00028186,0.0,0 STARLINK-4084,1 52657U 22053B   22231.58334491 -.00028186  00000-0 -17589-2 0  9993,2 52657  53.2152 221.5417 0001724  58.4823 255.1446 15.08858191 15437,6917.825,95.436,540.882,538.497,0.0
52657.0,STARLINK-4084,PAYLOAD,2022-08-19 22:00:00,15.08829268,0.0001655,53.2155,220.044,66.3744,258.8593,0.0025081,0.00039843,0.0,0 STARLINK-4084,1 52657U 22053B   22231.91667824  .00039843  00000-0  25081-2 0  9995,2 52657  53.2155 220.0440 0001655  66.3744 258.8593 15.08829268  1300,6917.913000000001,95.438,540.923,538.633,0.0
52657.0,STARLINK-4084,PAYLOAD,2022-08-20 04:00:00,15.08858557,0.0001718,53.2154,218.9231,62.0819,181.846,-0.001467,-0.00023572,0.0,0 STARLINK-4084,1 52657U 22053B   22232.16667824 -.00023572  00000-0 -14670-2 0  9999,2 52657  53.2154 218.9231 0001718  62.0819 181.8460 15.08858557 15529,6917.824000000001,95.436,540.877,538.5,0.0
52657.0,STARLINK-4084,PAYLOAD,2022-08-20 14:00:01,15.08861084,0.0001658,53.215,217.0524,58.6064,289.8296,-0.0036631999999999,-0.00058151,0.0,0 STARLINK-4084,1 52657U 22053B   22232.58334491 -.00058151  00000-0 -36632-2 0  9999,2 52657  53.2150 217.0524 0001658  58.6064 289.8296 15.08861084  1302,6917.816,95.436,540.828,538.534,0.0
52657.0,STARLINK-4084,PAYLOAD,2022-08-20 22:00:00,15.08816444,0.0001551999999999,53.2152,215.5549,66.2662,293.7666,0.0022872,0.00036277,0.0,0 STARLINK-4084,1 52657U 22053B   22232.91667824  .00036277  00000-0  22872-2 0  9999,2 52657  53.2152 215.5549 0001552  66.2662 293.7666 15.08816444  1312,6917.9519999999975,95.439,540.891,538.744,0.0
52657.0,STARLINK-4084,PAYLOAD,2022-08-21 04:00:00,15.08840427,0.0001636999999999,53.215,214.4341,61.2242,217.4903,-0.0014411,-0.0002315,0.0,0 STARLINK-4084,1 52657U 22053B   22233.16667824 -.00023150  00000-0 -14411-2 0  9995,2 52657  53.2150 214.4341 0001637  61.2242 217.4903 15.08840427 15670,6917.879,95.438,540.877,538.612,0.0
52657.0,STARLINK-4084,PAYLOAD,2022-08-21 14:00:01,15.08851585,0.0001636,53.2146,212.5633,59.9169,323.277,-0.0021254,-0.00033966,0.0,0 STARLINK-4084,1 52657U 22053B   22233.58334491 -.00033966  00000-0 -21254-2 0  9991,2 52657  53.2146 212.5633 0001636  59.9169 323.2770 15.08851585  1309,6917.845,95.437,540.842,538.578,0.0
52657.0,STARLINK-4084,PAYLOAD,2022-08-21 20:00:01,15.08813264,0.0001554,53.2146,211.44,66.8441,235.0542,0.0029041,0.000462,0.0,0 STARLINK-4084,1 52657U 22053B   22233.83334491  .00046200  00000-0  29041-2 0  9994,2 52657  53.2146 211.4400 0001554  66.8441 235.0542 15.08813264 15773,6917.962,95.439,540.9019999999998,538.752,0.0
52657.0,STARLINK-4084,PAYLOAD,2022-08-21 22:00:00,15.0882769,0.0001578,53.2147,211.066,68.0472,326.7414,0.0018275,0.00028907,0.0,0 STARLINK-4084,1 52657U 22053B   22233.91667824  .00028907  00000-0  18275-2 0  9993,2 52657  53.2147 211.0660 0001578  68.0472 326.7414 15.08827690  1300,6917.918000000002,95.438,540.875,538.691,0.0
52657.0,STARLINK-4084,PAYLOAD,2022-08-22 12:00:00,15.08851838,0.0001675999999999,53.214,208.4487,59.4665,265.6082,-0.0010520999999999,-0.00016999,0.0,0 STARLINK-4084,1 52657U 22053B   22234.50001157 -.00016999  00000-0 -10521-2 0  9996,2 52657  53.2140 208.4487 0001676  59.4665 265.6082 15.08851838  1300,6917.844,95.437,540.869,538.55,0.0
52657.0,STARLINK-4084,PAYLOAD,2022-08-22 22:00:00,15.08840277,0.0001641999999999,53.2142,206.5768,69.2126,0.364,0.0013759,0.00021677,0.0,0 STARLINK-4084,1 52657U 22053B   22234.91667824  .00021677  00000-0  13759-2 0  9993,2 52657  53.2142 206.5768 0001642  69.2126   0.3640 15.08840277  1306,6917.88,95.438,540.88,538.609,0.0
52657.0,STARLINK-4084,PAYLOAD,2022-08-23 04:00:00,15.0885486,0.0001725,53.214,205.4559,63.1179,285.1609,-0.0012564,-0.00020236,0.0,0 STARLINK-4084,1 52657U 22053B   22235.16667824 -.00020236  00000-0 -12564-2 0  9996,2 52657  53.2140 205.4559 0001725  63.1179 285.1609 15.08854860 15972,6917.835,95.437,540.893,538.507,0.0
